[
    {
        "Altitude(m)": 607910.9921333265,
        "Argument of Periapsis(deg)": 0.0,
        "Eccentricity": 0.0,
        "Inclination(deg)": 60.0,
        "Latitude(deg)": -14.292848915647022,
        "Longitude(deg)": 58.44266857233123,
        "Mean Anomaly(deg)": -163.63639999999998,
        "RAAN(deg)": 330.0,
        "Satellite Name": "Test1 1464",
        "Satellite Number": 1464,
        "Semi-Major Axis(m)": 6980739.136638005,
        "Time(s)": 0
    },
    {
        "Altitude(m)": 608060.225075274,
        "Argument of Periapsis(deg)": 0.00010418945913296404,
        "Eccentricity": 0.0,
        "Inclination(deg)": 60.0,
        "Latitude(deg)": -14.826509903025553,
        "Longitude(deg)": 58.731278708104476,
        "Mean Anomaly(deg)": -163.01629385453822,
        "RAAN(deg)": 329.9995799508602,
        "Satellite Name": "Test1 1464",
        "Satellite Number": 1464,
        "Semi-Major Axis(m)": 6980739.136638005,
        "Time(s)": 10
    }
]